[{"OBJECT_NAME":"STARLINK-5727","OBJECT_ID":"2023-020U","EPOCH":"2026-03-09T22:00:01.999584","MEAN_MOTION":15.1135593,"ECCENTRICITY":0.00015609,"INCLINATION":43.001,"RA_OF_ASC_NODE":2.9941,"ARG_OF_PERICENTER":231.255,"MEAN_ANOMALY":270.7764,"EPHEMERIS_TYPE":0,"CLASSIFICATION_TYPE":"U","NORAD_CAT_ID":55587,"ELEMENT_SET_NO":999,"REV_AT_EPOCH":568,"BSTAR":0.026212648,"MEAN_MOTION_DOT":0.00476079,"MEAN_MOTION_DDOT":0},{"OBJECT_NAME":"TIROS 8 DEB","OBJECT_ID":"1963-054E","EPOCH":"2026-03-09T05:22:09.369120","MEAN_MOTION":15.13815533,"ECCENTRICITY":0.00070645,"INCLINATION":58.4668,"RA_OF_ASC_NODE":307.6042,"ARG_OF_PERICENTER":279.6735,"MEAN_ANOMALY":80.3526,"EPHEMERIS_TYPE":0,"CLASSIFICATION_TYPE":"U","NORAD_CAT_ID":19396,"ELEMENT_SET_NO":999,"REV_AT_EPOCH":1931,"BSTAR":0.00045651397,"MEAN_MOTION_DOT":8.056e-5,"MEAN_MOTION_DDOT":0}]
